QIANFAN-41              
1 62242U 24232F   26012.86912882  .00000042  00000+0  46838-4 0  9992
2 62242  89.0001  38.0530 0015939 100.5724 259.7224 13.50982532103453
QIANFAN-42              
1 62243U 24232G   26012.96149588  .00000116  00000+0  43884-4 0  9999
2 62243  88.9994  33.7869 0014411 351.3415   8.7527 14.24506000105811
QIANFAN-43              
1 62244U 24232H   26012.93906036  .00000046  00000+0  51667-4 0  9996
2 62244  89.0005  38.1126 0017433 105.1495 255.1586 13.50981525 72073
QIANFAN-44              
1 62245U 24232J   26013.00077904  .00000043  00000+0  47570-4 0  9994
2 62245  89.0003  37.9166 0015663 102.2018 258.0888 13.50983817103556
QIANFAN-45              
1 62246U 24232K   26012.96792119  .00000039  00000+0  41193-4 0  9991
2 62246  89.0007  38.0676 0016333 102.0349 258.2634 13.50979798103474
QIANFAN-46              
1 62247U 24232L   26012.99256008  .00000047  00000+0  53302-4 0  9991
2 62247  89.0003  38.1329 0016340 106.8282 253.4663 13.50981783103435
QIANFAN-47              
1 62248U 24232M   26012.99671271  .00000041  00000+0  44011-4 0  9996
2 62248  88.9999  38.0642 0016779 106.0987 254.2013 13.50981913103461
QIANFAN-48              
1 62249U 24232N   26012.95963134  .00000028  00000+0  24627-4 0  9991
2 62249  89.0003  38.0710 0019012 108.7609 251.5607 13.50983376103463
